{"type": "FeatureCollection", "features": [ {"type": "Feature", "properties": {"norad_id": 66929, "name": "STARLINK-36169", "group": "last-30-days", "lat": 52.58514827819042, "lon": 109.21343553959503, "alt_km": 337.1298731164079, "timestamp": "2025-12-21T05:44:50.292978+00:00", "meta": {"OBJECT_NAME": "STARLINK-36169", "OBJECT_ID": "2025-286E", "EPOCH": "2025-12-20T22:00:01.999584", "MEAN_MOTION": 15.75771969, "ECCENTRICITY": 8.485e-05, "INCLINATION": 53.1573, "RA_OF_ASC_NODE": 9.3919, "ARG_OF_PERICENTER": 86.1536, "MEAN_ANOMALY": 339.1097, "EPHEMERIS_TYPE": 0, "CLASSIFICATION_TYPE": "U", "NORAD_CAT_ID": 66929, "ELEMENT_SET_NO": 999, "REV_AT_EPOCH": 330, "BSTAR": -0.0084943063, "MEAN_MOTION_DOT": -0.01184188, "MEAN_MOTION_DDOT": 0}, "tle": {"line1": "1 66929U 25286E   25354.91668981 -.01184188  00000+0 -84943-2 0  9994", "line2": "2 66929  53.1573   9.3919 0000848  86.1536 339.1097 15.75771969  3303"}}, "geometry": {"type": "Point", "coordinates": [109.21343553959503, 52.58514827819042]}}, {"type": "Feature", "properties": {"norad_id": 66930, "name": "STARLINK-36206", "group": "last-30-days", "lat": 52.234807634557754, "lon": 112.349529801189, "alt_km": 337.36010249491846, "timestamp": "2025-12-21T05:44:50.292988+00:00", "meta": {"OBJECT_NAME": "STARLINK-36206", "OBJECT_ID": "2025-286F", "EPOCH": "2025-12-20T22:00:01.999584", "MEAN_MOTION": 15.75755143, "ECCENTRICITY": 7.344e-05, "INCLINATION": 53.1574, "RA_OF_ASC_NODE": 9.3876, "ARG_OF_PERICENTER": 96.6799, "MEAN_ANOMALY": 330.5625, "EPHEMERIS_TYPE": 0, "CLASSIFICATION_TYPE": "U", "NORAD_CAT_ID": 66930, "ELEMENT_SET_NO": 999, "REV_AT_EPOCH": 330, "BSTAR": -0.0087404875, "MEAN_MOTION_DOT": -0.01213701, "MEAN_MOTION_DDOT": 0}, "tle": {"line1": "1 66930U 25286F   25354.91668981 -.01213701  00000+0 -87405-2 0  9996", "line2": "2 66930  53.1574   9.3876 0000734  96.6799 330.5625 15.75755143  3307"}}, "geometry": {"type": "Point", "coordinates": [112.349529801189, 52.234807634557754]}}, {"type": "Feature", "properties": {"norad_id": 66931, "name": "STARLINK-36130", "group": "last-30-days", "lat": 51.79670373569917, "lon": 115.46610055589515, "alt_km": 337.5070938095605, "timestamp": "2025-12-21T05:44:50.292998+00:00", "meta": {"OBJECT_NAME": "STARLINK-36130", "OBJECT_ID": "2025-286G", "EPOCH": "2025-12-20T22:00:01.999584", "MEAN_MOTION": 15.75700311, "ECCENTRICITY": 9.382e-05, "INCLINATION": 53.1571, "RA_OF_ASC_NODE": 9.3835, "ARG_OF_PERICENTER": 85.0722, "MEAN_ANOMALY": 344.2082, "EPHEMERIS_TYPE": 0, "CLASSIFICATION_TYPE": "U", "NORAD_CAT_ID": 66931, "ELEMENT_SET_NO": 999, "REV_AT_EPOCH": 330, "BSTAR": -0.0089457281, "MEAN_MOTION_DOT": -0.01258301, "MEAN_MOTION_DDOT": 0}, "tle": {"line1": "1 66931U 25286G   25354.91668981 -.01258301  00000+0 -89457-2 0  9991", "line2": "2 66931  53.1571   9.3835 0000938  85.0722 344.2082 15.75700311  3300"}}, "geometry": {"type": "Point", "coordinates": [115.46610055589515, 51.79670373569917]}}, {"type": "Feature", "properties": {"norad_id": 66932, "name": "STARLINK-36177", "group": "last-30-days", "lat": 51.28170585526437, "lon": 118.49630187277572, "alt_km": 337.9310722977152, "timestamp": "2025-12-21T05:44:50.293008+00:00", "meta": {"OBJECT_NAME": "STARLINK-36177", "OBJECT_ID": "2025-286H", "EPOCH": "2025-12-20T22:00:01.999584", "MEAN_MOTION": 15.7565346, "ECCENTRICITY": 6.989e-05, "INCLINATION": 53.157, "RA_OF_ASC_NODE": 9.3792, "ARG_OF_PERICENTER": 85.1888, "MEAN_ANOMALY": 346.1115, "EPHEMERIS_TYPE": 0, "CLASSIFICATION_TYPE": "U", "NORAD_CAT_ID": 66932, "ELEMENT_SET_NO": 999, "REV_AT_EPOCH": 330, "BSTAR": -0.0091733044, "MEAN_MOTION_DOT": -0.01284528, "MEAN_MOTION_DDOT": 0}, "tle": {"line1": "1 66932U 25286H   25354.91668981 -.01284528  00000+0 -91733-2 0  9992", "line2": "2 66932  53.1570   9.3792 0000698  85.1888 346.1115 15.75653460  3309"}}, "geometry": {"type": "Point", "coordinates": [118.49630187277572, 51.28170585526437]}}, {"type": "Feature", "properties": {"norad_id": 66933, "name": "STARLINK-36157", "group": "last-30-days", "lat": 50.691053091368445, "lon": 121.45072866691406, "alt_km": 338.2910408568523, "timestamp": "2025-12-21T05:44:50.293020+00:00", "meta": {"OBJECT_NAME": "STARLINK-36157", "OBJECT_ID": "2025-286J", "EPOCH": "2025-12-20T22:00:01.999584", "MEAN_MOTION": 15.75616566, "ECCENTRICITY": 6.022e-05, "INCLINATION": 53.1571, "RA_OF_ASC_NODE": 9.3748, "ARG_OF_PERICENTER": 77.6864, "MEAN_ANOMALY": 355.6238, "EPHEMERIS_TYPE": 0, "CLASSIFICATION_TYPE": "U", "NORAD_CAT_ID": 66933, "ELEMENT_SET_NO": 999, "REV_AT_EPOCH": 330, "BSTAR": -0.0094903335, "MEAN_MOTION_DOT": -0.01322248, "MEAN_MOTION_DDOT": 0}, "tle": {"line1": "1 66933U 25286J   25354.91668981 -.01322248  00000+0 -94903-2 0  9997", "line2": "2 66933  53.1571   9.3748 0000602  77.6864 355.6238 15.75616566  3304"}}, "geometry": {"type": "Point", "coordinates": [121.45072866691406, 50.691053091368445]}}, {"type": "Feature", "properties": {"norad_id": 66934, "name": "STARLINK-36153", "group": "last-30-days", "lat": 50.03072740817111, "lon": 124.31524755195947, "alt_km": 338.4655130046749, "timestamp": "2025-12-21T05:44:50.293030+00:00", "meta": {"OBJECT_NAME": "STARLINK-36153", "OBJECT_ID": "2025-286K", "EPOCH": "2025-12-20T22:00:01.999584", "MEAN_MOTION": 15.75561146, "ECCENTRICITY": 6.789e-05, "INCLINATION": 53.1575, "RA_OF_ASC_NODE": 9.3706, "ARG_OF_PERICENTER": 91.7625, "MEAN_ANOMALY": 343.558, "EPHEMERIS_TYPE": 0, "CLASSIFICATION_TYPE": "U", "NORAD_CAT_ID": 66934, "ELEMENT_SET_NO": 999, "REV_AT_EPOCH": 330, "BSTAR": -0.0095506334, "MEAN_MOTION_DOT": -0.01326881, "MEAN_MOTION_DDOT": 0}, "tle": {"line1": "1 66934U 25286K   25354.91668981 -.01326881  00000+0 -95506-2 0  9995", "line2": "2 66934  53.1575   9.3706 0000678  91.7625 343.5580 15.75561146  3307"}}, "geometry": {"type": "Point", "coordinates": [124.31524755195947, 50.03072740817111]}}, {"type": "Feature", "properties": {"norad_id": 66935, "name": "STARLINK-36127", "group": "last-30-days", "lat": 49.28468838824594, "lon": 127.15499861082323, "alt_km": 338.60539768617855, "timestamp": "2025-12-21T05:44:50.293040+00:00", "meta": {"OBJECT_NAME": "STARLINK-36127", "OBJECT_ID": "2025-286L", "EPOCH": "2025-12-20T22:00:01.999584", "MEAN_MOTION": 15.75566237, "ECCENTRICITY": 0.00010849, "INCLINATION": 53.1568, "RA_OF_ASC_NODE": 9.3665, "ARG_OF_PERICENTER": 84.0322, "MEAN_ANOMALY": 353.3224, "EPHEMERIS_TYPE": 0, "CLASSIFICATION_TYPE": "U", "NORAD_CAT_ID": 66935, "ELEMENT_SET_NO": 999, "REV_AT_EPOCH": 330, "BSTAR": -0.010606339, "MEAN_MOTION_DOT": -0.01456877, "MEAN_MOTION_DDOT": 0}, "tle": {"line1": "1 66935U 25286L   25354.91668981 -.01456877  00000+0 -10606-1 0  9992", "line2": "2 66935  53.1568   9.3665 0001084  84.0322 353.3224 15.75566237  3305"}}, "geometry": {"type": "Point", "coordinates": [127.15499861082323, 49.28468838824594]}}, {"type": "Feature", "properties": {"norad_id": 66936, "name": "STARLINK-36160", "group": "last-30-days", "lat": 48.494966109858595, "lon": 129.83210148881827, "alt_km": 338.8328973696325, "timestamp": "2025-12-21T05:44:50.293051+00:00", "meta": {"OBJECT_NAME": "STARLINK-36160", "OBJECT_ID": "2025-286M", "EPOCH": "2025-12-20T22:00:01.999584", "MEAN_MOTION": 15.75497684, "ECCENTRICITY": 0.00011128, "INCLINATION": 53.1568, "RA_OF_ASC_NODE": 9.3628, "ARG_OF_PERICENTER": 79.6706, "MEAN_ANOMALY": 359.6703, "EPHEMERIS_TYPE": 0, "CLASSIFICATION_TYPE": "U", "NORAD_CAT_ID": 66936, "ELEMENT_SET_NO": 999, "REV_AT_EPOCH": 330, "BSTAR": -0.010276091, "MEAN_MOTION_DOT": -0.01412921, "MEAN_MOTION_DDOT": 0}, "tle": {"line1": "1 66936U 25286M   25354.91668981 -.01412921  00000+0 -10276-1 0  9998", "line2": "2 66936  53.1568   9.3628 0001112  79.6706 359.6703 15.75497684  3303"}}, "geometry": {"type": "Point", "coordinates": [129.83210148881827, 48.494966109858595]}}, {"type": "Feature", "properties": {"norad_id": 66937, "name": "STARLINK-36165", "group": "last-30-days", "lat": 47.64768668174652, "lon": 132.41721972826636, "alt_km": 339.1018663782379, "timestamp": "2025-12-21T05:44:50.293069+00:00", "meta": {"OBJECT_NAME": "STARLINK-36165", "OBJECT_ID": "2025-286N", "EPOCH": "2025-12-20T22:00:01.999584", "MEAN_MOTION": 15.75435546, "ECCENTRICITY": 9.863e-05, "INCLINATION": 53.1575, "RA_OF_ASC_NODE": 9.3582, "ARG_OF_PERICENTER": 96.668, "MEAN_ANOMALY": 344.6625, "EPHEMERIS_TYPE": 0, "CLASSIFICATION_TYPE": "U", "NORAD_CAT_ID": 66937, "ELEMENT_SET_NO": 999, "REV_AT_EPOCH": 330, "BSTAR": -0.010135412, "MEAN_MOTION_DOT": -0.01392281, "MEAN_MOTION_DDOT": 0}, "tle": {"line1": "1 66937U 25286N   25354.91668981 -.01392281  00000+0 -10135-1 0  9999", "line2": "2 66937  53.1575   9.3582 0000986  96.6680 344.6625 15.75435546  3305"}}, "geometry": {"type": "Point", "coordinates": [132.41721972826636, 47.64768668174652]}}, {"type": "Feature", "properties": {"norad_id": 66938, "name": "STARLINK-36155", "group": "last-30-days", "lat": 46.74341631472245, "lon": 134.91570326613274, "alt_km": 339.50124189918824, "timestamp": "2025-12-21T05:44:50.293079+00:00", "meta": {"OBJECT_NAME": "STARLINK-36155", "OBJECT_ID": "2025-286P", "EPOCH": "2025-12-20T22:00:01.999584", "MEAN_MOTION": 15.75357193, "ECCENTRICITY": 7.136e-05, "INCLINATION": 53.1571, "RA_OF_ASC_NODE": 9.3538, "ARG_OF_PERICENTER": 104.1521, "MEAN_ANOMALY": 339.1675, "EPHEMERIS_TYPE": 0, "CLASSIFICATION_TYPE": "U", "NORAD_CAT_ID": 66938, "ELEMENT_SET_NO": 999, "REV_AT_EPOCH": 330, "BSTAR": -0.0096943273, "MEAN_MOTION_DOT": -0.01333937, "MEAN_MOTION_DDOT": 0}, "tle": {"line1": "1 66938U 25286P   25354.91668981 -.01333937  00000+0 -96943-2 0  9995", "line2": "2 66938  53.1571   9.3538 0000713 104.1521 339.1675 15.75357193  3305"}}, "geometry": {"type": "Point", "coordinates": [134.91570326613274, 46.74341631472245]}}]}